[{"OBJECT_NAME":"STARLINK-34739","OBJECT_ID":"2025-165L","EPOCH":"2026-03-09T18:01:24.829248","MEAN_MOTION":15.05645642,"ECCENTRICITY":0.00011746,"INCLINATION":97.602,"RA_OF_ASC_NODE":147.35,"ARG_OF_PERICENTER":27.7702,"MEAN_ANOMALY":332.3587,"EPHEMERIS_TYPE":0,"CLASSIFICATION_TYPE":"U","NORAD_CAT_ID":65066,"ELEMENT_SET_NO":999,"REV_AT_EPOCH":3480,"BSTAR":0.0004926159,"MEAN_MOTION_DOT":7.053e-5,"MEAN_MOTION_DDOT":0},{"OBJECT_NAME":"PEGASUS DEB","OBJECT_ID":"1994-029AFE","EPOCH":"2026-03-09T22:01:13.596672","MEAN_MOTION":14.67197331,"ECCENTRICITY":0.01795257,"INCLINATION":81.944,"RA_OF_ASC_NODE":137.8868,"ARG_OF_PERICENTER":239.0776,"MEAN_ANOMALY":119.2676,"EPHEMERIS_TYPE":0,"CLASSIFICATION_TYPE":"U","NORAD_CAT_ID":39319,"ELEMENT_SET_NO":999,"REV_AT_EPOCH":26377,"BSTAR":0.00029247934,"MEAN_MOTION_DOT":2.119e-5,"MEAN_MOTION_DDOT":0}]
